H1 CPF 01  gfz 2022 07 30 12  7112 tandemx   
H2 1003001  6202 36605    2022 07 30 12 59 42 2022 08 04 00 00 42   120 1 1  0 0 0
H9
10 0 59792  39582.000000  0    1053881.316  -5666488.383  -3781793.062
10 0 59792  39702.000000  0     770956.502  -5165611.397  -4500142.299
10 0 59792  39822.000000  0     484222.174  -4569927.366  -5139684.522
10 0 59792  39942.000000  0     200241.230  -3889871.088  -5689316.512
10 0 59792  40062.000000  0     -74678.333  -3137426.481  -6139522.896
10 0 59792  40182.000000  0    -334616.630  -2325908.445  -6482529.619
10 0 59792  40302.000000  0    -574163.181  -1469724.092  -6712426.581
10 0 59792  40422.000000  0    -788524.278   -584118.046  -6825259.322
10 0 59792  40542.000000  0    -973614.617    315095.537  -6819089.840
10 0 59792  40662.000000  0   -1126132.463   1211808.810  -6694024.915
10 0 59792  40782.000000  0   -1243617.165   2089901.185  -6452214.373
10 0 59792  40902.000000  0   -1324488.052   2933521.566  -6097818.362
10 0 59792  41022.000000  0   -1368064.851   3727370.218  -5636945.021
10 0 59792  41142.000000  0   -1374568.782   4456974.784  -5077555.268
10 0 59792  41262.000000  0   -1345104.430   5108956.612  -4429337.307
10 0 59792  41382.000000  0   -1281622.666   5671282.602  -3703549.093
10 0 59792  41502.000000  0   -1186864.420   6133495.793  -2912830.975
10 0 59792  41622.000000  0   -1064286.539   6486920.439  -2070992.157
10 0 59792  41742.000000  0    -917971.067   6724837.526  -1192771.938
10 0 59792  41862.000000  0    -752520.078   6842623.482   -293580.632
10 0 59792  41982.000000  0    -572937.782   6837850.778    610774.878
10 0 59792  42102.000000  0    -384503.145   6710345.324   1504377.517
10 0 59792  42222.000000  0    -192636.594   6462196.021   2371490.883
10 0 59792  42342.000000  0      -2764.585   6097717.371   3196844.397
10 0 59792  42462.000000  0     179814.871   5623369.471   3965907.959
10 0 59792  42582.000000  0     350062.502   5047638.777   4665153.218
10 0 59792  42702.000000  0     503320.905   4380873.549   5282297.505
10 0 59792  42822.000000  0     635427.065   3635085.563   5806514.023
10 0 59792  42942.000000  0     742812.512   2823727.108   6228618.797
10 0 59792  43062.000000  0     822587.417   1961440.403   6541226.480
10 0 59792  43182.000000  0     872608.282   1063788.511   6738873.624
10 0 59792  43302.000000  0     891527.976    146971.544   6818108.088
10 0 59792  43422.000000  0     878827.213   -772464.774   6777545.365
10 0 59792  43542.000000  0     834826.704  -1677927.368   6617892.641
10 0 59792  43662.000000  0     760679.837  -2553075.127   6341937.506
10 0 59792  43782.000000  0     658346.023  -3382115.188   5954502.773
10 0 59792  43902.000000  0     530544.677  -4150089.911   5462364.653
10 0 59792  44022.000000  0     380692.375  -4843148.558   4874139.814
10 0 59792  44142.000000  0     212823.546  -5448802.870   4200142.083
10 0 59792  44262.000000  0      31494.887  -5956162.431   3452206.746
10 0 59792  44382.000000  0    -158324.438  -6356141.048   2643484.423
10 0 59792  44502.000000  0    -351373.608  -6641629.423   1788208.280
10 0 59792  44622.000000  0    -542229.404  -6807629.758    901440.792
10 0 59792  44742.000000  0    -725440.925  -6851351.835     -1198.408
10 0 59792  44862.000000  0    -895666.267  -6772262.083   -903817.832
10 0 59792  44982.000000  0   -1047806.582  -6572086.040  -1790543.123
10 0 59792  45102.000000  0   -1177134.722  -6254766.140  -2645803.536
10 0 59792  45222.000000  0   -1279415.826  -5826376.441  -3454611.257
10 0 59792  45342.000000  0   -1351016.511  -5294995.351  -4202827.559
10 0 59792  45462.000000  0   -1388999.690  -4670540.212  -4877409.032
10 0 59792  45582.000000  0   -1391203.228  -3964570.290  -5466629.396
10 0 59792  45702.000000  0   -1356301.009  -3190063.310  -5960275.127
10 0 59792  45822.000000  0   -1283845.223  -2361170.003  -6349812.609
10 0 59792  45942.000000  0   -1174289.421  -1492951.541  -6628524.162
10 0 59792  46062.000000  0   -1028992.525   -601106.327  -6791612.442
10 0 59792  46182.000000  0    -850203.937    298310.169  -6836274.113
10 0 59792  46302.000000  0    -641028.784   1189167.974  -6761741.811
10 0 59792  46422.000000  0    -405375.068   2055544.085  -6569295.686
10 0 59792  46542.000000  0    -147883.773   2881999.587  -6262244.319
10 0 59792  46662.000000  0     126158.821   3653850.506  -5845875.730
10 0 59792  46782.000000  0     410925.415   4357427.468  -5327375.184
10 0 59792  46902.000000  0     700165.524   4980318.874  -4715712.366
10 0 59792  47022.000000  0     987336.005   5511596.188  -4021497.985
10 0 59792  47142.000000  0    1265742.126   5942014.884  -3256809.162
10 0 59792  47262.000000  0    1528685.848   6264186.392  -2434986.812
10 0 59792  47382.000000  0    1769618.428   6472717.706  -1570406.942
10 0 59792  47502.000000  0    1982293.906   6564313.853   -678228.765
10 0 59792  47622.000000  0    2160919.272   6537838.945    225875.524
10 0 59792  47742.000000  0    2300296.933   6394334.013   1126002.600
10 0 59792  47862.000000  0    2395956.364   6136991.480   2006305.399
10 0 59792  47982.000000  0    2444271.309   5771086.558   2851280.254
10 0 59792  48102.000000  0    2442559.952   5303867.640   3646047.603
10 0 59792  48222.000000  0    2389165.078   4744407.915   4376620.894
10 0 59792  48342.000000  0    2283511.548   4103421.033   5030158.482
10 0 59792  48462.000000  0    2126139.138   3393043.972   5595188.697
10 0 59792  48582.000000  0    1918713.240   2626600.063   6061806.550
10 0 59792  48702.000000  0    1664012.258   1818343.469   6421843.536
10 0 59792  48822.000000  0    1365890.780    983188.513   6669005.376
10 0 59792  48942.000000  0    1029220.321    136431.567   6798974.776
10 0 59792  49062.000000  0     659809.357   -706527.903   6809482.031
10 0 59792  49182.000000  0     264302.875  -1530467.333   6700343.918
10 0 59792  49302.000000  0    -149937.400  -2320616.071   6473466.519
10 0 59792  49422.000000  0    -574969.981  -3062920.781   6132813.621
10 0 59792  49542.000000  0   -1002424.091  -3744296.365   5684339.450
10 0 59792  49662.000000  0   -1423661.402  -4352857.682   5135890.317
10 0 59792  49782.000000  0   -1829949.357  -4878132.133   4497076.135
10 0 59792  49902.000000  0   -2212642.284  -5311248.999   3779108.423
10 0 59792  50022.000000  0   -2563365.383  -5645098.917   2994605.487
10 0 59792  50142.000000  0   -2874196.631  -5874457.682   2157369.697
10 0 59792  50262.000000  0   -3137842.788  -5996073.834   1282142.087
10 0 59792  50382.000000  0   -3347805.507  -6008717.727    384337.472
10 0 59792  50502.000000  0   -3498533.131  -5913189.997   -520234.468
10 0 59792  50622.000000  0   -3585554.315  -5712289.167  -1415656.497
10 0 59792  50742.000000  0   -3605589.865  -5410738.268  -2286193.018
10 0 59792  50862.000000  0   -3556640.025  -5015072.787  -3116574.123
10 0 59792  50982.000000  0   -3438044.700  -4533493.196  -3892268.147
10 0 59792  51102.000000  0   -3250515.499  -3975687.203  -4599736.246
10 0 59792  51222.000000  0   -2996140.229  -3352627.323  -5226665.141
10 0 59792  51342.000000  0   -2678360.260  -2676348.148  -5762174.515
10 0 59792  51462.000000  0   -2301921.780  -1959709.171  -6196996.275
10 0 59792  51582.000000  0   -1872801.531  -1216147.954  -6523624.636
10 0 59792  51702.000000  0   -1398108.941   -459428.187  -6736433.842
10 0 59792  51822.000000  0    -885968.166    296611.693  -6831763.603
10 0 59792  51942.000000  0    -345381.178   1038305.199  -6807974.886
10 0 59792  52062.000000  0     213927.049   1752398.412  -6665474.818
10 0 59792  52182.000000  0     781677.749   2426280.349  -6406711.568
10 0 59792  52302.000000  0    1347223.520   3048202.237  -6036138.575
10 0 59792  52422.000000  0    1899743.696   3607480.956  -5560145.263
10 0 59792  52542.000000  0    2428447.750   4094683.132  -4986957.235
10 0 59792  52662.000000  0    2922784.041   4501788.193  -4326505.988
10 0 59792  52782.000000  0    3372650.004   4822327.611  -3590267.444
10 0 59792  52902.000000  0    3768599.680   5051495.879  -2791071.253
10 0 59792  53022.000000  0    4102044.799   5186230.513  -1942882.232
10 0 59792  53142.000000  0    4365442.482   5225258.031  -1060558.049
10 0 59792  53262.000000  0    4552466.306   5169106.185   -159586.853
10 0 59792  53382.000000  0    4658155.503   5020078.324    744190.742
10 0 59792  53502.000000  0    4679036.498   4782191.441   1634867.192
10 0 59792  53622.000000  0    4613216.488   4461081.913   2496755.253
10 0 59792  53742.000000  0    4460446.109   4063877.625   3314674.455
10 0 59792  53862.000000  0    4222145.778   3599039.717   4074226.318
10 0 59792  53982.000000  0    3901398.405   3076179.369   4762051.589
10 0 59792  54102.000000  0    3502910.282   2505855.853   5366067.474
10 0 59792  54222.000000  0    3032936.033   1899357.718   5875679.455
10 0 59792  54342.000000  0    2499175.112   1268475.886   6281961.570
10 0 59792  54462.000000  0    1910641.388    625271.129   6577806.811
10 0 59792  54582.000000  0    1277507.468    -18156.772   6758044.718
10 0 59792  54702.000000  0     610926.753   -649895.419   6819527.921
10 0 59792  54822.000000  0     -77164.116  -1258440.901   6761184.060
10 0 59792  54942.000000  0    -774259.260  -1832906.958   6584032.721
10 0 59792  55062.000000  0   -1467510.553  -2363219.845   6291167.559
10 0 59792  55182.000000  0   -2143962.276  -2840294.632   5887704.517
10 0 59792  55302.000000  0   -2790791.860  -3256192.389   5380699.939
10 0 59792  55422.000000  0   -3395556.272  -3604256.854   4779034.854
10 0 59792  55542.000000  0   -3946436.325  -3879224.788   4093263.466
10 0 59792  55662.000000  0   -4432471.718  -4077308.658   3335431.119
10 0 59792  55782.000000  0   -4843783.583  -4196250.494   2518864.863
10 0 59792  55902.000000  0   -5171780.847  -4235346.056   1657938.543
10 0 59792  56022.000000  0   -5409343.673  -4195436.659    767814.862
99
